QB50P1                  
1 40025U 14033R   26156.28625995  .00008026  00000+0  39735-3 0  9993
2 40025  98.0971 166.5996 0007025 264.5036  95.5395 15.18070423651222
DTUSAT-2                
1 40030U 14033W   26156.48094786  .00008046  00000+0  43624-3 0  9993
2 40030  98.0866 153.4663 0006194 275.2568  84.7955 15.14861222650910
QB50P2                  
1 40032U 14033Y   26156.47630529  .00008036  00000+0  43394-3 0  9998
2 40032  98.0754 152.6291 0006766 203.3827 156.7096 15.15001181650895
PERSEUS-M1              
1 40039U 14033AF  26156.39498808  .00002641  00000+0  24318-3 0  9999
2 40039  97.9642 100.3340 0010951 345.5802  14.5104 14.95594170648872
POLYITAN-1              
1 40042U 14033AJ  26156.04237672  .00021892  00000+0  69172-3 0  9991
2 40042  98.0948 181.1587 0007713 177.6399 182.4878 15.32815214651733
TIGRISAT                
1 40043U 14033AK  26156.39259149  .00002492  00000+0  29106-3 0  9991
2 40043  97.7823 306.6759 0050661 112.8276 247.8301 14.85113629643873
CANX-4                  
1 40055U 14034C   26155.45230034  .00001206  00000+0  16196-3 0  9990
2 40055  98.3135  30.2971 0013904  55.6030 304.6494 14.81240766642644
CANX-5                  
1 40056U 14034D   26156.39659271  .00001016  00000+0  13754-3 0  9999
2 40056  98.3138  31.3190 0013869  52.8981 307.3495 14.81259108633592
GONETS-M 10             
1 40063U 14036C   26156.72087520 -.00000013  00000+0 -16246-3 0  9995
2 40063  82.5110 314.7978 0022198 164.8572 195.3176 12.42944970540829
METEOR-M 2              
1 40069U 14037A   26156.74240444  .00000082  00000+0  56877-4 0  9999
2 40069  98.5113 132.8867 0007063  71.8596 288.3350 14.21458083617699
DX1                     
1 40071U 14037C   26156.74341569  .00000888  00000+0  98683-4 0  9997
2 40071  98.3870 117.7517 0006327 320.8355  39.2403 14.89947158644407
UKUBE-1                 
1 40074U 14037F   26156.46596860  .00009587  00000+0  54164-3 0  9995
2 40074  98.4242 158.5085 0001839 145.4672 214.6676 15.13359228646780
GAOFEN-2                
1 40118U 14049A   26156.68980292  .00001109  00000+0  15046-3 0  9995
2 40118  98.0109 220.9077 0005865 272.9205  87.1336 14.80888642637532
BRITE-PL2 (HEWELIUSZ)   
1 40119U 14049B   26156.59000163  .00002921  00000+0  27519-3 0  9997
2 40119  97.9087 268.5018 0015021 143.5558 216.6687 14.94550332639715
CBERS 4                 
1 40336U 14079A   26156.74548557  .00000328  00000+0  12869-3 0  9993
2 40336  98.3531 213.9356 0002071  74.6793 285.4622 14.35506795602318
SMAP                    
1 40376U 15003A   26156.66100468  .00000492  00000+0  10441-3 0  9997
2 40376  98.1276 163.9189 0001258  91.3960 268.7387 14.63356291605930
GONETS-M 11             
1 40552U 15020A   26156.65820713  .00000085  00000+0  54194-3 0  9994
2 40552  82.4876  38.1760 0017073  29.9009 330.3043 12.42876999507303
GONETS-M 12             
1 40553U 15020B   26156.71232293  .00000072  00000+0  44823-3 0  9996
2 40553  82.4909  39.2630 0015851  15.3903 344.7655 12.42891088507307
GONETS-M 13             
1 40554U 15020C   26156.68561102  .00000031  00000+0  15623-3 0  9998
2 40554  82.4871  37.8982 0014207   1.2211 358.8901 12.42869910507275
DMC3-FM1                
1 40715U 15032A   26156.75614554  .00000130  00000+0  20897-4 0  9998
2 40715  97.6470  22.3787 0007116  88.5333 271.6698 14.85723639588217
DMC3-FM2                
1 40716U 15032B   26156.71089263  .00000532  00000+0  67159-4 0  9996
2 40716  97.6524  23.9010 0007581  93.7396 266.4687 14.85729221588209
DMC3-FM3                
1 40717U 15032C   26156.73413785  .00001161  00000+0  13962-3 0  9990
2 40717  97.6577  25.6694 0006872  93.1957 267.0045 14.85722230588213
CARBONITE 1 (CBNT-1)    
1 40718U 15032D   26156.71663297  .00002072  00000+0  25742-3 0  9995
2 40718  97.6503 335.2639 0013991 338.4430  21.6194 14.83551566587648
LILACSAT-2              
1 40908U 15049K   26156.40311003  .00016866  00000+0  29144-3 0  9991
2 40908  97.4655 192.7995 0005343 302.5632  57.5104 15.51038852593925
COSMOS 2507 (RODNIK-S *)
1 40920U 15050A   26156.72152593  .00000106  00000+0  69512-3 0  9992
2 40920  82.4925  86.8085 0010676  20.5678 339.5830 12.42926663485436
COSMOS 2508 (RODNIK-S *)
1 40921U 15050B   26156.67643433  .00000113  00000+0  74590-3 0  9995
2 40921  82.4878  85.3460 0015449  50.3480 309.8960 12.42914020485416
COSMOS 2509 (RODNIK-S *)
1 40922U 15050C   26156.69648711  .00000153  00000+0  10348-2 0  9996
2 40922  82.4886  85.4347 0015865  66.2208 294.0533 12.42883699485459
