OBJECT_NAME,OBJECT_ID,EPOCH,MEAN_MOTION,ECCENTRICITY,INCLINATION,RA_OF_ASC_NODE,ARG_OF_PERICENTER,MEAN_ANOMALY,EPHEMERIS_TYPE,CLASSIFICATION_TYPE,NORAD_CAT_ID,ELEMENT_SET_NO,REV_AT_EPOCH,BSTAR,MEAN_MOTION_DOT,MEAN_MOTION_DDOT
QB50P1,2014-033R,2026-06-05T06:52:12.859680,15.18070423,.0007025,98.0971,166.5996,264.5036,95.5395,0,U,40025,999,65122,.39735E-3,.8026E-4,0
DTUSAT-2,2014-033W,2026-06-05T11:32:33.895104,15.14861222,.0006194,98.0866,153.4663,275.2568,84.7955,0,U,40030,999,65091,.43624E-3,.8046E-4,0
QB50P2,2014-033Y,2026-06-05T11:25:52.777056,15.15001181,.0006766,98.0754,152.6291,203.3827,156.7096,0,U,40032,999,65089,.43394E-3,.8036E-4,0
PERSEUS-M1,2014-033AF,2026-06-05T09:28:46.970112,14.95594170,.0010951,97.9642,100.3340,345.5802,14.5104,0,U,40039,999,64887,.24318E-3,.2641E-4,0
POLYITAN-1,2014-033AJ,2026-06-05T01:01:01.348608,15.32815214,.00077135,98.0948,181.1587,177.6399,182.4878,0,U,40042,999,65173,.69172249E-3,.21892E-3,0
TIGRISAT,2014-033AK,2026-06-05T09:25:19.904736,14.85113629,.0050661,97.7823,306.6759,112.8276,247.8301,0,U,40043,999,64387,.29106E-3,.2492E-4,0
CANX-4,2014-034C,2026-06-04T10:51:18.749376,14.81240766,.00139048,98.3135,30.2971,55.6030,304.6494,0,U,40055,999,64264,.16195794E-3,.1206E-4,0
CANX-5,2014-034D,2026-06-05T09:31:05.610144,14.81259108,.0013869,98.3138,31.3190,52.8981,307.3495,0,U,40056,999,63359,.13754E-3,.1016E-4,0
GONETS-M 10,2014-036C,2026-06-05T17:18:03.617280,12.42944970,.0022198,82.5110,314.7978,164.8572,195.3176,0,U,40063,999,54082,-.16246E-3,-.13E-6,0
METEOR-M 2,2014-037A,2026-06-05T17:49:03.743616,14.21458083,.0007063,98.5113,132.8867,71.8596,288.3350,0,U,40069,999,61769,.56877E-4,.82E-6,0
DX1,2014-037C,2026-06-05T17:50:31.115616,14.89947158,.0006327,98.3870,117.7517,320.8355,39.2403,0,U,40071,999,64440,.98683E-4,.888E-5,0
UKUBE-1,2014-037F,2026-06-05T11:10:59.687040,15.13359228,.0001839,98.4242,158.5085,145.4672,214.6676,0,U,40074,999,64678,.54164E-3,.9587E-4,0
GAOFEN-2,2014-049A,2026-06-05T16:33:18.972288,14.80888642,.0005865,98.0109,220.9077,272.9205,87.1336,0,U,40118,999,63753,.15046E-3,.1109E-4,0
BRITE-PL2 (HEWELIUSZ),2014-049B,2026-06-05T14:09:36.140832,14.94550332,.0015021,97.9087,268.5018,143.5558,216.6687,0,U,40119,999,63971,.27519E-3,.2921E-4,0
CBERS 4,2014-079A,2026-06-05T17:53:29.953248,14.35506795,.0002071,98.3531,213.9356,74.6793,285.4622,0,U,40336,999,60231,.12869E-3,.328E-5,0
SMAP,2015-003A,2026-06-05T15:51:50.804352,14.63356291,.0001258,98.1276,163.9189,91.3960,268.7387,0,U,40376,999,60593,.10441E-3,.492E-5,0
GONETS-M 11,2015-020A,2026-06-05T15:47:49.096032,12.42876999,.0017073,82.4876,38.1760,29.9009,330.3043,0,U,40552,999,50730,.54194E-3,.85E-6,0
GONETS-M 12,2015-020B,2026-06-05T17:05:44.701152,12.42891088,.0015851,82.4909,39.2630,15.3903,344.7655,0,U,40553,999,50730,.44823E-3,.72E-6,0
GONETS-M 13,2015-020C,2026-06-05T16:27:16.792128,12.42869910,.0014207,82.4871,37.8982,1.2211,358.8901,0,U,40554,999,50727,.15623E-3,.31E-6,0
DMC3-FM1,2015-032A,2026-06-05T18:08:50.974656,14.85723639,.0007116,97.6470,22.3787,88.5333,271.6698,0,U,40715,999,58821,.20897E-4,.13E-5,0
DMC3-FM2,2015-032B,2026-06-05T17:03:41.123232,14.85729221,.0007581,97.6524,23.9010,93.7396,266.4687,0,U,40716,999,58820,.67159E-4,.532E-5,0
DMC3-FM3,2015-032C,2026-06-05T17:37:09.510240,14.85722230,.0006872,97.6577,25.6694,93.1957,267.0045,0,U,40717,999,58821,.13962E-3,.1161E-4,0
CARBONITE 1 (CBNT-1),2015-032D,2026-06-05T17:11:57.088608,14.83551566,.0013991,97.6503,335.2639,338.4430,21.6194,0,U,40718,999,58764,.25742E-3,.2072E-4,0
LILACSAT-2,2015-049K,2026-06-05T09:40:28.706592,15.51038852,.0005343,97.4655,192.7995,302.5632,57.5104,0,U,40908,999,59392,.29144E-3,.16866E-3,0
COSMOS 2507 (RODNIK-S 13),2015-050A,2026-06-05T17:18:59.840352,12.42926663,.0010676,82.4925,86.8085,20.5678,339.5830,0,U,40920,999,48543,.69512E-3,.106E-5,0
COSMOS 2508 (RODNIK-S 14),2015-050B,2026-06-05T16:14:03.926112,12.42914020,.0015449,82.4878,85.3460,50.3480,309.8960,0,U,40921,999,48541,.7459E-3,.113E-5,0
COSMOS 2509 (RODNIK-S 15),2015-050C,2026-06-05T16:42:56.486304,12.42883699,.0015865,82.4886,85.4347,66.2208,294.0533,0,U,40922,999,48545,.10348E-2,.153E-5,0
